ONEWEB-0716             
1 55177U 23004AP  25256.18188381 -.00000528  00000+0 -13940-2 0  9997
2 55177  87.9038  60.9773 0001540  90.3493 269.7815 13.17651743131104
ONEWEB-0717             
1 55178U 23004AQ  25256.16500318 -.00000001  00000+0 -36210-4 0  9997
2 55178  87.9049  60.9434 0002540  99.2117 260.9302 13.17648448131150
ONEWEB-0719             
1 55179U 23004AR  25256.17512220 -.00000250  00000+0 -67621-3 0  9999
2 55179  87.9048  60.9242 0001721  84.7584 275.3744 13.17648538131109
ONEWEB-0530             
1 55796U 23029A   25255.89636429 -.00000072  00000+0 -20829-3 0  9998
2 55796  87.9277 329.7663 0002393  94.2746 265.8661 13.20771462124542
ONEWEB-0534             
1 55797U 23029B   25254.74739165  .00000036  00000+0  55955-4 0  9990
2 55797  87.9273 329.9986 0001796  95.5825 264.5513 13.20773046124392
ONEWEB-0556             
1 55798U 23029C   25255.96581550 -.00000013  00000+0 -63942-4 0  9991
2 55798  87.9277 329.7519 0002134  77.6181 282.5191 13.20771748124557
ONEWEB-0562             
1 55799U 23029D   25256.18043923  .00000019  00000+0  15288-4 0  9998
2 55799  87.9267 329.6968 0002653  85.2945 274.8491 13.20769872124588
ONEWEB-0563             
1 55800U 23029E   25256.17410674  .00000098  00000+0  20920-3 0  9996
2 55800  87.9278 329.7190 0001708  92.2750 267.8579 13.20774531124579
